[{"OBJECT_NAME":"STARLINK-5902","OBJECT_ID":"2023-042N","EPOCH":"2026-03-09T00:52:28.838496","MEAN_MOTION":15.02537897,"ECCENTRICITY":0.00012932,"INCLINATION":43.0042,"RA_OF_ASC_NODE":59.5275,"ARG_OF_PERICENTER":263.1469,"MEAN_ANOMALY":96.9226,"EPHEMERIS_TYPE":0,"CLASSIFICATION_TYPE":"U","NORAD_CAT_ID":55998,"ELEMENT_SET_NO":999,"REV_AT_EPOCH":16281,"BSTAR":0.00010539184,"MEAN_MOTION_DOT":1.22e-5,"MEAN_MOTION_DDOT":0},{"OBJECT_NAME":"COSMOS 397 DEB","OBJECT_ID":"1971-015AJ","EPOCH":"2026-03-09T18:29:11.550048","MEAN_MOTION":14.57731986,"ECCENTRICITY":0.02840491,"INCLINATION":65.3533,"RA_OF_ASC_NODE":250.7757,"ARG_OF_PERICENTER":34.5343,"MEAN_ANOMALY":327.3849,"EPHEMERIS_TYPE":0,"CLASSIFICATION_TYPE":"U","NORAD_CAT_ID":5155,"ELEMENT_SET_NO":999,"REV_AT_EPOCH":73323,"BSTAR":0.001223321,"MEAN_MOTION_DOT":9.675e-5,"MEAN_MOTION_DDOT":0}]
